{"type": "FeatureCollection", "features": [ {"type": "Feature", "properties": {"norad_id": 44543, "name": "BEIDOU-3 M23 (C45)", "group": "beidou", "lat": -1.235491345637439, "lon": -172.28891760519073, "alt_km": 21513.74850241191, "timestamp": "2025-12-24T07:45:06.465286+00:00", "meta": {"OBJECT_NAME": "BEIDOU-3 M23 (C45)", "OBJECT_ID": "2019-061B", "EPOCH": "2025-12-22T04:16:38.631360", "MEAN_MOTION": 1.86227761, "ECCENTRICITY": 0.00060882, "INCLINATION": 54.3995, "RA_OF_ASC_NODE": 188.6659, "ARG_OF_PERICENTER": 26.1092, "MEAN_ANOMALY": 334.4978, "EPHEMERIS_TYPE": 0, "CLASSIFICATION_TYPE": "U", "NORAD_CAT_ID": 44543, "ELEMENT_SET_NO": 999, "REV_AT_EPOCH": 4250, "BSTAR": 0, "MEAN_MOTION_DOT": 9.4e-07, "MEAN_MOTION_DDOT": 0}, "tle": {"line1": "1 44543U 19061B   25356.17822490  .00000094  00000+0  00000+0 0  9992", "line2": "2 44543  54.3995 188.6659 0006088  26.1092 334.4978  1.86227761 42501"}}, "geometry": {"type": "Point", "coordinates": [-172.28891760519073, -1.235491345637439]}}, {"type": "Feature", "properties": {"norad_id": 44793, "name": "BEIDOU-3 M22 (C44)", "group": "beidou", "lat": -10.61399351102694, "lon": 133.75545489963264, "alt_km": 21546.218117219974, "timestamp": "2025-12-24T07:45:06.465298+00:00", "meta": {"OBJECT_NAME": "BEIDOU-3 M22 (C44)", "OBJECT_ID": "2019-078A", "EPOCH": "2025-12-22T23:04:03.320256", "MEAN_MOTION": 1.86232206, "ECCENTRICITY": 0.00060944, "INCLINATION": 54.0989, "RA_OF_ASC_NODE": 306.0279, "ARG_OF_PERICENTER": 24.0205, "MEAN_ANOMALY": 336.0117, "EPHEMERIS_TYPE": 0, "CLASSIFICATION_TYPE": "U", "NORAD_CAT_ID": 44793, "ELEMENT_SET_NO": 999, "REV_AT_EPOCH": 4136, "BSTAR": 0, "MEAN_MOTION_DOT": -5.4e-07, "MEAN_MOTION_DDOT": 0}, "tle": {"line1": "1 44793U 19078A   25356.96114954 -.00000054  00000+0  00000+0 0  9990", "line2": "2 44793  54.0989 306.0279 0006094  24.0205 336.0117  1.86232206 41368"}}, "geometry": {"type": "Point", "coordinates": [133.75545489963264, -10.61399351102694]}}, {"type": "Feature", "properties": {"norad_id": 44794, "name": "BEIDOU-3 M21 (C43)", "group": "beidou", "lat": 52.74030742054285, "lon": 53.717858065920744, "alt_km": 21521.721762944795, "timestamp": "2025-12-24T07:45:06.465309+00:00", "meta": {"OBJECT_NAME": "BEIDOU-3 M21 (C43)", "OBJECT_ID": "2019-078B", "EPOCH": "2025-12-22T00:36:11.320992", "MEAN_MOTION": 1.86227906, "ECCENTRICITY": 0.00042988, "INCLINATION": 54.0732, "RA_OF_ASC_NODE": 306.0255, "ARG_OF_PERICENTER": 12.7951, "MEAN_ANOMALY": 347.2162, "EPHEMERIS_TYPE": 0, "CLASSIFICATION_TYPE": "U", "NORAD_CAT_ID": 44794, "ELEMENT_SET_NO": 999, "REV_AT_EPOCH": 4135, "BSTAR": 0, "MEAN_MOTION_DOT": -5.8e-07, "MEAN_MOTION_DDOT": 0}, "tle": {"line1": "1 44794U 19078B   25356.02513103 -.00000058  00000+0  00000+0 0  9991", "line2": "2 44794  54.0732 306.0255 0004298  12.7951 347.2162  1.86227906 41359"}}, "geometry": {"type": "Point", "coordinates": [53.717858065920744, 52.74030742054285]}}, {"type": "Feature", "properties": {"norad_id": 44864, "name": "BEIDOU-3 M19 (C41)", "group": "beidou", "lat": -48.23495057161447, "lon": 20.569410125812887, "alt_km": 21483.289372114643, "timestamp": "2025-12-24T07:45:06.465321+00:00", "meta": {"OBJECT_NAME": "BEIDOU-3 M19 (C41)", "OBJECT_ID": "2019-090A", "EPOCH": "2025-12-23T08:14:02.545728", "MEAN_MOTION": 1.86231621, "ECCENTRICITY": 0.00183506, "INCLINATION": 56.4016, "RA_OF_ASC_NODE": 68.6102, "ARG_OF_PERICENTER": 285.1686, "MEAN_ANOMALY": 74.3057, "EPHEMERIS_TYPE": 0, "CLASSIFICATION_TYPE": "U", "NORAD_CAT_ID": 44864, "ELEMENT_SET_NO": 999, "REV_AT_EPOCH": 4095, "BSTAR": 0, "MEAN_MOTION_DOT": -2.5e-07, "MEAN_MOTION_DDOT": 0}, "tle": {"line1": "1 44864U 19090A   25357.34308502 -.00000025  00000+0  00000+0 0  9998", "line2": "2 44864  56.4016  68.6102 0018350 285.1686  74.3057  1.86231621 40950"}}, "geometry": {"type": "Point", "coordinates": [20.569410125812887, -48.23495057161447]}}, {"type": "Feature", "properties": {"norad_id": 44865, "name": "BEIDOU-3 M20 (C42)", "group": "beidou", "lat": 21.574204634855175, "lon": 83.84881905246122, "alt_km": 21524.59000465785, "timestamp": "2025-12-24T07:45:06.465332+00:00", "meta": {"OBJECT_NAME": "BEIDOU-3 M20 (C42)", "OBJECT_ID": "2019-090B", "EPOCH": "2025-12-23T05:19:57.002592", "MEAN_MOTION": 1.86231582, "ECCENTRICITY": 0.00155076, "INCLINATION": 56.4032, "RA_OF_ASC_NODE": 68.6485, "ARG_OF_PERICENTER": 297.2888, "MEAN_ANOMALY": 70.7426, "EPHEMERIS_TYPE": 0, "CLASSIFICATION_TYPE": "U", "NORAD_CAT_ID": 44865, "ELEMENT_SET_NO": 999, "REV_AT_EPOCH": 4094, "BSTAR": 0, "MEAN_MOTION_DOT": -2.6e-07, "MEAN_MOTION_DDOT": 0}, "tle": {"line1": "1 44865U 19090B   25357.22218753 -.00000026  00000+0  00000+0 0  9995", "line2": "2 44865  56.4032  68.6485 0015507 297.2888  70.7426  1.86231582 40947"}}, "geometry": {"type": "Point", "coordinates": [83.84881905246122, 21.574204634855175]}}, {"type": "Feature", "properties": {"norad_id": 45344, "name": "BEIDOU-3 G2 (C60)", "group": "beidou", "lat": -2.3064861167607384, "lon": -70.6046057346206, "alt_km": 35776.97659262262, "timestamp": "2025-12-24T07:45:06.465343+00:00", "meta": {"OBJECT_NAME": "BEIDOU-3 G2 (C60)", "OBJECT_ID": "2020-017A", "EPOCH": "2025-12-23T23:47:05.724672", "MEAN_MOTION": 1.00272217, "ECCENTRICITY": 0.000222, "INCLINATION": 2.5166, "RA_OF_ASC_NODE": 44.183, "ARG_OF_PERICENTER": 236.7044, "MEAN_ANOMALY": 248.6997, "EPHEMERIS_TYPE": 0, "CLASSIFICATION_TYPE": "U", "NORAD_CAT_ID": 45344, "ELEMENT_SET_NO": 999, "REV_AT_EPOCH": 2150, "BSTAR": 0, "MEAN_MOTION_DOT": -1.2e-06, "MEAN_MOTION_DDOT": 0}, "tle": {"line1": "1 45344U 20017A   25357.99103848 -.00000120  00000+0  00000+0 0  9996", "line2": "2 45344   2.5166  44.1830 0002220 236.7044 248.6997  1.00272217 21509"}}, "geometry": {"type": "Point", "coordinates": [-70.6046057346206, -2.3064861167607384]}}, {"type": "Feature", "properties": {"norad_id": 45807, "name": "BEIDOU-3 G3 (C61)", "group": "beidou", "lat": -1.9489978702016781, "lon": -40.15690990639651, "alt_km": 35771.906482557075, "timestamp": "2025-12-24T07:45:06.465355+00:00", "meta": {"OBJECT_NAME": "BEIDOU-3 G3 (C61)", "OBJECT_ID": "2020-040A", "EPOCH": "2025-12-23T22:13:07.225248", "MEAN_MOTION": 1.00268431, "ECCENTRICITY": 0.00065719, "INCLINATION": 2.0164, "RA_OF_ASC_NODE": 66.6762, "ARG_OF_PERICENTER": 309.0867, "MEAN_ANOMALY": 160.7733, "EPHEMERIS_TYPE": 0, "CLASSIFICATION_TYPE": "U", "NORAD_CAT_ID": 45807, "ELEMENT_SET_NO": 999, "REV_AT_EPOCH": 2031, "BSTAR": 0, "MEAN_MOTION_DOT": -3.33e-06, "MEAN_MOTION_DDOT": 0}, "tle": {"line1": "1 45807U 20040A   25357.92577807 -.00000333  00000+0  00000+0 0  9995", "line2": "2 45807   2.0164  66.6762 0006571 309.0867 160.7733  1.00268431 20312"}}, "geometry": {"type": "Point", "coordinates": [-40.15690990639651, -1.9489978702016781]}}, {"type": "Feature", "properties": {"norad_id": 56564, "name": "BEIDOU-3 G4 (C62)", "group": "beidou", "lat": 0.7252388720431918, "lon": 9.412927690084963, "alt_km": 35796.613012721085, "timestamp": "2025-12-24T07:45:06.465367+00:00", "meta": {"OBJECT_NAME": "BEIDOU-3 G4 (C62)", "OBJECT_ID": "2023-066A", "EPOCH": "2025-12-23T22:27:13.375008", "MEAN_MOTION": 1.00271058, "ECCENTRICITY": 0.00026171, "INCLINATION": 0.7917, "RA_OF_ASC_NODE": 302.9037, "ARG_OF_PERICENTER": 228.0114, "MEAN_ANOMALY": 58.6657, "EPHEMERIS_TYPE": 0, "CLASSIFICATION_TYPE": "U", "NORAD_CAT_ID": 56564, "ELEMENT_SET_NO": 999, "REV_AT_EPOCH": 963, "BSTAR": 0, "MEAN_MOTION_DOT": -9e-07, "MEAN_MOTION_DDOT": 0}, "tle": {"line1": "1 56564U 23066A   25357.93557147 -.00000090  00000+0  00000+0 0  9994", "line2": "2 56564   0.7917 302.9037 0002617 228.0114  58.6657  1.00271058  9639"}}, "geometry": {"type": "Point", "coordinates": [9.412927690084963, 0.7252388720431918]}}, {"type": "Feature", "properties": {"norad_id": 58654, "name": "BEIDOU-3 M28 (C50)", "group": "beidou", "lat": 37.94463616394082, "lon": 100.481848969852, "alt_km": 21529.039868457672, "timestamp": "2025-12-24T07:45:06.465378+00:00", "meta": {"OBJECT_NAME": "BEIDOU-3 M28 (C50)", "OBJECT_ID": "2023-207A", "EPOCH": "2025-12-23T04:15:12.326400", "MEAN_MOTION": 1.86229739, "ECCENTRICITY": 0.00028337, "INCLINATION": 55.5933, "RA_OF_ASC_NODE": 68.248, "ARG_OF_PERICENTER": 274.486, "MEAN_ANOMALY": 85.5342, "EPHEMERIS_TYPE": 0, "CLASSIFICATION_TYPE": "U", "NORAD_CAT_ID": 58654, "ELEMENT_SET_NO": 999, "REV_AT_EPOCH": 1356, "BSTAR": 0, "MEAN_MOTION_DOT": -2.8e-07, "MEAN_MOTION_DDOT": 0}, "tle": {"line1": "1 58654U 23207A   25357.17722600 -.00000028  00000+0  00000+0 0  9998", "line2": "2 58654  55.5933  68.2480 0002833 274.4860  85.5342  1.86229739 13564"}}, "geometry": {"type": "Point", "coordinates": [100.481848969852, 37.94463616394082]}}, {"type": "Feature", "properties": {"norad_id": 58655, "name": "BEIDOU-3 M26 (C48)", "group": "beidou", "lat": -3.1860070234242714, "lon": -109.60280897602641, "alt_km": 21526.017880266238, "timestamp": "2025-12-24T07:45:06.465389+00:00", "meta": {"OBJECT_NAME": "BEIDOU-3 M26 (C48)", "OBJECT_ID": "2023-207B", "EPOCH": "2025-12-22T23:23:41.171712", "MEAN_MOTION": 1.86231234, "ECCENTRICITY": 0.00041871, "INCLINATION": 55.5951, "RA_OF_ASC_NODE": 68.241, "ARG_OF_PERICENTER": 260.4893, "MEAN_ANOMALY": 99.5155, "EPHEMERIS_TYPE": 0, "CLASSIFICATION_TYPE": "U", "NORAD_CAT_ID": 58655, "ELEMENT_SET_NO": 999, "REV_AT_EPOCH": 1354, "BSTAR": 0, "MEAN_MOTION_DOT": -2.8e-07, "MEAN_MOTION_DDOT": 0}, "tle": {"line1": "1 58655U 23207B   25356.97478208 -.00000028  00000+0  00000+0 0  9998", "line2": "2 58655  55.5951  68.2410 0004187 260.4893  99.5155  1.86231234 13541"}}, "geometry": {"type": "Point", "coordinates": [-109.60280897602641, -3.1860070234242714]}}]}